HELIOS 1B               
1 25977U 99064A   21121.45441441  .00000076  00000-0  16609-4 0  9991
2 25977  98.3139 294.1290 0002283  66.8939 293.2513 14.82551282422234
TERRA                   
1 25994U 99068A   21121.54268979  .00000082  00000-0  28093-4 0  9994
2 25994  98.1775 196.8206 0001383 100.3496  12.5442 14.57127596136519
SL-16 R/B               
1 26070U 00006B   21121.53110917  .00000282  00000-0  16864-3 0  9995
2 26070  71.0034 224.8447 0016681 352.9170   7.1715 14.15475134 97644
MTI                     
1 26102U 00014A   21121.30526393  .00009578  00000-0  11865-3 0  9997
2 26102  97.4698  25.4057 0008436 125.7727 234.4294 15.60258063173994
TITAN 4B R/B            
1 26474U 00047B   21121.55819618  .00000249  00000-0  32260-4 0  9996
2 26474  67.9927 279.9763 0058584 211.9500 147.8086 14.96135529126824
ENVISAT                 
1 27386U 02009A   21121.55968562  .00000024  00000-0  21460-4 0  9993
2 27386  98.1483 118.0142 0001349  86.1332  24.0863 14.38023494  4339
IDEFIX & ARIANE 42P R/B 
1 27422U 02021B   21121.48576347  .00000030  00000-0  28141-4 0  9996
2 27422  98.3986  76.1602 0012653  17.4361 342.7253 14.29317046990598
AQUA                    
1 27424U 02022A   21121.57479345  .00000125  00000-0  37805-4 0  9991
2 27424  98.2066  63.5787 0002486  78.5383  94.8611 14.57118387 10209
CZ-4B R/B               
1 27432U 02024C   21121.54761196 -.00000033  00000-0  71461-5 0  9993
2 27432  99.0878 135.1642 0050415   0.3208 171.0549 14.14107512978604
MIDORI II (ADEOS-II)    
1 27597U 02056A   21121.55306594  .00000063  00000-0  43241-4 0  9994
2 27597  98.5610  67.8132 0001939 107.8415 252.2977 14.27496193957197
H-2A R/B                
1 27601U 02056E   21121.60126086 -.00000029  00000-0  39615-5 0  9996
2 27601  98.1935 146.4265 0073111  50.3649  60.2765 14.31991406960224
CZ-4B R/B               
1 28059U 03049C   21121.55464029  .00000035  00000-0  20293-4 0  9990
2 28059  98.4939  47.7510 0048928 245.6664 113.9418 14.52648178929010
CZ-2C R/B               
1 28222U 04012C   21121.48409046  .00001030  00000-0  64497-4 0  9993
2 28222  97.7238  91.8310 0047389  23.9463  88.9853 15.10834387934045
SL-16 R/B               
1 28353U 04021B   21121.35310099 -.00000318  00000-0 -14160-3 0  9994
2 28353  71.0023 352.5970 0006778 230.3937 129.6587 14.14243700872081
CZ-4B R/B               
1 28415U 04035C   21121.55983355  .00000026  00000-0  60084-5 0  9993
2 28415  97.5700 164.8714 0050965 349.2234  10.7897 15.07095496911541
CZ-2C R/B               
1 28480U 04046B   21121.55920481  .00000013  00000-0  19985-4 0  9997
2 28480  98.0527 137.3393 0141934   3.3583 152.3116 14.25751293855767
ARIANE 5 R/B            
1 28499U 04049H   21121.58320847  .00000077  00000-0  17064-4 0  9999
2 28499  98.0648 230.5953 0091195 325.8970  43.9305 14.80114368883150
CZ-2D R/B               
1 28738U 05024B   21121.53429421  .00000624  00000-0  39495-4 0  9992
2 28738  97.3639 139.2256 0012434 156.5521 203.6280 15.12370538869496
SUZAKU (ASTRO-EII)      
1 28773U 05025A   21121.36653796  .00001317  00000-0  58338-4 0  9994
2 28773  31.3808 108.4685 0004565 170.8741 189.1990 15.18314523872302
ALOS (DAICHI)           
1 28931U 06002A   21121.49729124  .00000188  00000-0  45495-4 0  9994
2 28931  97.8840  98.3049 0001540 107.8784 252.2580 14.62830780814195
H-2A R/B                
1 28932U 06002B   21121.53857588  .00000740  00000-0  73261-4 0  9992
2 28932  98.3303 135.7952 0088294   1.9583 111.7397 14.92531339828693
AKARI (ASTRO-F)         
1 28939U 06005A   21121.56587558  .00003499  00000-0  88918-4 0  9991
2 28939  98.2466 139.2307 0086307 290.0245  69.1719 15.36735061829705
RESURS-DK 1             
1 29228U 06021A   21121.41984033  .00000176  00000-0  20553-4 0  9994
2 29228  69.9343  98.4656 0006606 308.6489  51.4080 15.02682354820489
GENESIS 1               
1 29252U 06029A   21121.34031385  .00000736  00000-0  44871-4 0  9995
2 29252  64.5227 341.5250 0038621 328.5611  31.3203 15.18623464816360
CZ-4B R/B               
1 29507U 06046C   21121.55472645  .00001208  00000-0  97773-4 0  9992
2 29507  97.7310 147.6870 0047369 172.4739 187.7206 15.00809683793074
CZ-2C R/B               
1 31114U 07010B   21121.52211329  .00000056  00000-0  44392-4 0  9997
2 31114  98.2355 318.5298 0060791  60.3122 300.4088 14.19358601728140
COSMO-SKYMED 1          
1 31598U 07023A   21121.51992429 -.00000303  00000-0 -31516-4 0  9994
2 31598  97.8898 306.0772 0001511  88.1178 272.0211 14.82149944751940
GENESIS 2               
1 31789U 07028A   21121.14590984  .00000483  00000-0  33874-4 0  9996
2 31789  64.5063  24.4631 0013671 202.3619 157.6909 15.17742729763351
COSMOS 2428             
1 31792U 07029A   21121.58828205  .00000202  00000-0  13620-3 0  9994
2 31792  70.8942 324.4659 0009574 291.6691  68.3410 14.12256300713698
SL-16 R/B               
1 31793U 07029B   21121.58884465 -.00000074  00000-0 -13872-4 0  9994
2 31793  70.9756 298.0683 0002187 262.1013 162.7201 14.14449987714640
KORONAS-FOTON           
1 33504U 09003A   21121.49233096  .00000688  00000-0  34110-4 0  9995
2 33504  82.4404 266.2868 0017416 257.4365 102.4919 15.15957743675548
H-2A R/B                
1 38341U 12025E   21121.47157570  .00000175  00000-0  28110-4 0  9991
2 38341  98.5273 303.7451 0054185 290.9086  68.6331 14.84211387484535
CUSAT 2 & FALCON 9 R/B  
1 39271U 13055G   21121.52245444  .00003496  00000-0  82703-4 0  9999
2 39271  80.9634 283.8843 0571214 291.0386  63.0634 14.52039350396821
SL-4 R/B                
1 39679U 14021B   21121.57014608  .00000906  00000-0  60965-4 0  9995
2 39679  51.6169  70.6558 0170163 328.6921  30.4003 15.06921599386985
ALOS-2                  
1 39766U 14029A   21121.45317086  .00000317  00000-0  49261-4 0  9995
2 39766  97.9194 219.4871 0001620  88.3020 271.8381 14.79473748374710
CZ-2C R/B               
1 40306U 14071B   21121.45584437  .00005833  00000-0  11314-3 0  9995
2 40306  97.3674  78.1149 0016301  86.7713 273.5402 15.47937416362982
SL-27 R/B               
1 40354U 14084B   21121.54399201  .00001441  00000-0  35454-4 0  9998
2 40354  74.7366  89.6785 0035358 119.5161 240.9585 15.41007864357118
YAOGAN 29               
1 41038U 15069A   21121.43585073  .00000058  00000-0  14558-4 0  9999
2 41038  98.0369 115.3713 0001021  50.0920 310.0381 14.80500625293320
ASTRO-H (HITOMI)        
1 41337U 16012A   21121.48200759  .00000310  00000-0  18154-4 0  9997
2 41337  31.0042 153.1274 0012349 334.0676  25.9339 14.98827660285255
HXMT (HUIYAN)           
1 42758U 17034A   21121.39831615  .00000390  00000-0  37741-4 0  9992
2 42758  43.0167  91.4003 0009561 232.7909 262.5671 15.09156623213901
CZ-2C R/B               
1 43521U 18054D   21121.18718499  .00001067  00000-0  59401-4 0  9994
2 43521  35.1545  21.2458 0081343  40.6051 320.0694 15.11451576157246
AEOLUS                  
1 43600U 18066A   21121.57397145  .00036592  00000-0  14529-3 0  9991
2 43600  96.7185 129.1379 0004866 102.9935 257.1881 15.86612623155818
SAOCOM 1A               
1 43641U 18076A   21121.52838603  .00000058  00000-0  13827-4 0  9990
2 43641  97.8908 309.1276 0001519  83.3041 276.8352 14.82151129138711
CREW DRAGON DEMO-1 DEB  
1 44064U 19011B   21121.24337519  .00090637  00000-0  34453-3 0  9998
2 44064  51.6223 124.9677 0002972  66.6134 293.5183 15.86832528122904
SAOCOM 1B               
1 46265U 20059A   21121.49204688  .00000656  00000-0  88936-4 0  9992
2 46265  97.8892 308.1535 0001784  89.9285 270.2154 14.82157683 36100
CZ-2F R/B               
1 46390U 20063B   21121.52809979  .00103568  15618-4  21319-3 0  9996
2 46390  50.1973 218.3832 0010039 298.1191  61.8784 15.99006206 37956
2020-063G               
1 46395U 20063G   21121.53903881  .00023481  00000-0  98004-4 0  9995
2 46395  50.2028 227.2442 0009467 268.0790  91.9110 15.85452071 37837
